RCM-1
1 44322U 19033A   20135.24033106 -.00000227  00000-0 -16644-4 0  9999
2 44322  97.7597 142.4652 0001601  79.3104 280.8329 14.92584744 50204
RCM-3
1 44323U 19033B   20135.32996905  .00000376  00000-0  41957-4 0  9992
2 44323  97.7605 142.6496 0001631  76.8822 283.2578 14.92592093 50226
RCM-2
1 44324U 19033C   20135.35219381 -.00000539  00000-0 -47032-4 0  9995
2 44324  97.7597 142.6244 0001540  73.6835 286.4544 14.92584124 50220
